STARLINK-2465
1 28124C 21027AJ  21325.15259252  .00000246  00000-0  16484-4 0  3257
2 28124  53.0567   7.5498 0001321  67.3368 319.4044 15.06408550    10
